SL-3 R/B                
1 13403U 82079B   26036.11238552  .00006648  00000+0  26864-3 0  9993
2 13403  81.1436 231.5330 0024187 277.1058  82.7425 15.24325298372736
SL-14 R/B               
1 13553U 82092B   26035.87540052  .00000761  00000+0  82660-4 0  9994
2 13553  82.5699 172.0819 0021542  52.8505  64.1560 14.86628706324059
SL-3 R/B                
1 13819U 83010B   26036.00532227  .00018319  00000+0  38275-3 0  9991
2 13819  81.1018  42.2848 0017669 155.5207 204.6880 15.45199026352892
SL-3 R/B                
1 14208U 83075B   26036.15605826  .00015392  00000+0  41636-3 0  9990
2 14208  97.6128  39.5283 0021640 351.8327   8.2562 15.37563716325155
COSMOS 1536             
1 14699U 84013A   26035.68478502  .00008027  00000+0  33528-3 0  9991
2 14699  82.5480 140.6391 0015134  43.0967 317.1451 15.23375221267597
SL-14 R/B               
1 14820U 84027B   26036.10147249  .00000558  00000+0  60934-4 0  9994
2 14820  82.5404 275.5828 0019533  82.0364 278.3068 14.85944265242797
SL-8 R/B                
1 15483U 85006B   26036.18402348  .00000333  00000+0  11908-3 0  9997
2 15483  74.0475 320.9603 0019603 244.9128 279.2205 14.37766410149350
SL-12 R/B(2)            
1 15772U 85042D   26035.71003941  .00000091  00000+0  62475-4 0  9999
2 15772  71.1084 157.4033 0035197 180.7098 281.9968 14.21972483109707
SL-14 R/B               
1 15945U 85069B   26036.02879889  .00000624  00000+0  67866-4 0  9998
2 15945  82.5239  55.6524 0017443 303.4664  56.4884 14.86394248167982
SL-16 R/B               
1 16182U 85097B   26035.95004764  .00000103  00000+0  75741-4 0  9999
2 16182  71.0013 209.4757 0009439 298.0582 175.2540 14.16595852 82599
SL-14 R/B               
1 16496U 86006B   26036.14903774  .00000976  00000+0  10096-3 0  9998
2 16496  82.5273 290.3646 0077254  21.6760 338.7695 14.86769285144378
COSMOS 1743             
1 16719U 86034A   26035.93621243  .00043660  00000+0  62092-3 0  9991
2 16719  82.5331 108.1399 0005234  62.1339 298.0445 15.56170050175158
