CCSDS_OMM_VERS = 2.0
CREATION_DATE  = 
ORIGINATOR     = 

OBJECT_NAME    = SL-3 R/B
OBJECT_ID      = 1982-079B
CENTER_NAME    = EARTH
REF_FRAME      = TEME
TIME_SYSTEM    = UTC
MEAN_ELEMENT_THEORY = SGP/SGP4

EPOCH          = 2026-02-05T02:41:50.108928
MEAN_MOTION    = 15.24325298
ECCENTRICITY   = .0024187
INCLINATION    = 81.1436
RA_OF_ASC_NODE = 231.5330
ARG_OF_PERICENTER = 277.1058
MEAN_ANOMALY   = 82.7425

EPHEMERIS_TYPE = 0
CLASSIFICATION_TYPE = U
NORAD_CAT_ID   = 13403
ELEMENT_SET_NO = 999
REV_AT_EPOCH   = 37273
BSTAR          = .26864E-3
MEAN_MOTION_DOT = .6648E-4
MEAN_MOTION_DDOT = 0

CCSDS_OMM_VERS = 2.0
CREATION_DATE  = 
ORIGINATOR     = 

OBJECT_NAME    = SL-14 R/B
OBJECT_ID      = 1982-092B
CENTER_NAME    = EARTH
REF_FRAME      = TEME
TIME_SYSTEM    = UTC
MEAN_ELEMENT_THEORY = SGP/SGP4

EPOCH          = 2026-02-04T21:00:34.604928
MEAN_MOTION    = 14.86628706
ECCENTRICITY   = .0021542
INCLINATION    = 82.5699
RA_OF_ASC_NODE = 172.0819
ARG_OF_PERICENTER = 52.8505
MEAN_ANOMALY   = 64.1560

EPHEMERIS_TYPE = 0
CLASSIFICATION_TYPE = U
NORAD_CAT_ID   = 13553
ELEMENT_SET_NO = 999
REV_AT_EPOCH   = 32405
BSTAR          = .8266E-4
MEAN_MOTION_DOT = .761E-5
MEAN_MOTION_DDOT = 0

CCSDS_OMM_VERS = 2.0
CREATION_DATE  = 
ORIGINATOR     = 

OBJECT_NAME    = SL-3 R/B
OBJECT_ID      = 1983-010B
CENTER_NAME    = EARTH
REF_FRAME      = TEME
TIME_SYSTEM    = UTC
MEAN_ELEMENT_THEORY = SGP/SGP4

EPOCH          = 2026-02-05T00:07:39.844128
MEAN_MOTION    = 15.45199026
ECCENTRICITY   = .0017669
INCLINATION    = 81.1018
RA_OF_ASC_NODE = 42.2848
ARG_OF_PERICENTER = 155.5207
MEAN_ANOMALY   = 204.6880

EPHEMERIS_TYPE = 0
CLASSIFICATION_TYPE = U
NORAD_CAT_ID   = 13819
ELEMENT_SET_NO = 999
REV_AT_EPOCH   = 35289
BSTAR          = .38275E-3
MEAN_MOTION_DOT = .18319E-3
MEAN_MOTION_DDOT = 0

CCSDS_OMM_VERS = 2.0
CREATION_DATE  = 
ORIGINATOR     = 

OBJECT_NAME    = SL-3 R/B
OBJECT_ID      = 1983-075B
CENTER_NAME    = EARTH
REF_FRAME      = TEME
TIME_SYSTEM    = UTC
MEAN_ELEMENT_THEORY = SGP/SGP4

EPOCH          = 2026-02-05T03:44:43.433664
MEAN_MOTION    = 15.37563716
ECCENTRICITY   = .002164
INCLINATION    = 97.6128
RA_OF_ASC_NODE = 39.5283
ARG_OF_PERICENTER = 351.8327
MEAN_ANOMALY   = 8.2562

EPHEMERIS_TYPE = 0
CLASSIFICATION_TYPE = U
NORAD_CAT_ID   = 14208
ELEMENT_SET_NO = 999
REV_AT_EPOCH   = 32515
BSTAR          = .41636E-3
MEAN_MOTION_DOT = .15392E-3
MEAN_MOTION_DDOT = 0

CCSDS_OMM_VERS = 2.0
CREATION_DATE  = 
ORIGINATOR     = 

OBJECT_NAME    = COSMOS 1536
OBJECT_ID      = 1984-013A
CENTER_NAME    = EARTH
REF_FRAME      = TEME
TIME_SYSTEM    = UTC
MEAN_ELEMENT_THEORY = SGP/SGP4

EPOCH          = 2026-02-04T16:26:05.425728
MEAN_MOTION    = 15.23375221
ECCENTRICITY   = .0015134
INCLINATION    = 82.5480
RA_OF_ASC_NODE = 140.6391
ARG_OF_PERICENTER = 43.0967
MEAN_ANOMALY   = 317.1451

EPHEMERIS_TYPE = 0
CLASSIFICATION_TYPE = U
NORAD_CAT_ID   = 14699
ELEMENT_SET_NO = 999
REV_AT_EPOCH   = 26759
BSTAR          = .33528E-3
MEAN_MOTION_DOT = .8027E-4
MEAN_MOTION_DDOT = 0

CCSDS_OMM_VERS = 2.0
CREATION_DATE  = 
ORIGINATOR     = 

OBJECT_NAME    = SL-14 R/B
OBJECT_ID      = 1984-027B
CENTER_NAME    = EARTH
REF_FRAME      = TEME
TIME_SYSTEM    = UTC
MEAN_ELEMENT_THEORY = SGP/SGP4

EPOCH          = 2026-02-05T02:26:07.223136
MEAN_MOTION    = 14.85944265
ECCENTRICITY   = .0019533
INCLINATION    = 82.5404
RA_OF_ASC_NODE = 275.5828
ARG_OF_PERICENTER = 82.0364
MEAN_ANOMALY   = 278.3068

EPHEMERIS_TYPE = 0
CLASSIFICATION_TYPE = U
NORAD_CAT_ID   = 14820
ELEMENT_SET_NO = 999
REV_AT_EPOCH   = 24279
BSTAR          = .60934E-4
MEAN_MOTION_DOT = .558E-5
MEAN_MOTION_DDOT = 0

CCSDS_OMM_VERS = 2.0
CREATION_DATE  = 
ORIGINATOR     = 

OBJECT_NAME    = SL-8 R/B
OBJECT_ID      = 1985-006B
CENTER_NAME    = EARTH
REF_FRAME      = TEME
TIME_SYSTEM    = UTC
MEAN_ELEMENT_THEORY = SGP/SGP4

EPOCH          = 2026-02-05T04:24:59.628672
MEAN_MOTION    = 14.37766410
ECCENTRICITY   = .0019603
INCLINATION    = 74.0475
RA_OF_ASC_NODE = 320.9603
ARG_OF_PERICENTER = 244.9128
MEAN_ANOMALY   = 279.2205

EPHEMERIS_TYPE = 0
CLASSIFICATION_TYPE = U
NORAD_CAT_ID   = 15483
ELEMENT_SET_NO = 999
REV_AT_EPOCH   = 14935
BSTAR          = .11908E-3
MEAN_MOTION_DOT = .333E-5
MEAN_MOTION_DDOT = 0

CCSDS_OMM_VERS = 2.0
CREATION_DATE  = 
ORIGINATOR     = 

OBJECT_NAME    = SL-12 R/B(2)
OBJECT_ID      = 1985-042D
CENTER_NAME    = EARTH
REF_FRAME      = TEME
TIME_SYSTEM    = UTC
MEAN_ELEMENT_THEORY = SGP/SGP4

EPOCH          = 2026-02-04T17:02:27.405024
MEAN_MOTION    = 14.21972483
ECCENTRICITY   = .0035197
INCLINATION    = 71.1084
RA_OF_ASC_NODE = 157.4033
ARG_OF_PERICENTER = 180.7098
MEAN_ANOMALY   = 281.9968

EPHEMERIS_TYPE = 0
CLASSIFICATION_TYPE = U
NORAD_CAT_ID   = 15772
ELEMENT_SET_NO = 999
REV_AT_EPOCH   = 10970
BSTAR          = .62475E-4
MEAN_MOTION_DOT = .91E-6
MEAN_MOTION_DDOT = 0

CCSDS_OMM_VERS = 2.0
CREATION_DATE  = 
ORIGINATOR     = 

OBJECT_NAME    = SL-14 R/B
OBJECT_ID      = 1985-069B
CENTER_NAME    = EARTH
REF_FRAME      = TEME
TIME_SYSTEM    = UTC
MEAN_ELEMENT_THEORY = SGP/SGP4

EPOCH          = 2026-02-05T00:41:28.224096
MEAN_MOTION    = 14.86394248
ECCENTRICITY   = .0017443
INCLINATION    = 82.5239
RA_OF_ASC_NODE = 55.6524
ARG_OF_PERICENTER = 303.4664
MEAN_ANOMALY   = 56.4884

EPHEMERIS_TYPE = 0
CLASSIFICATION_TYPE = U
NORAD_CAT_ID   = 15945
ELEMENT_SET_NO = 999
REV_AT_EPOCH   = 16798
BSTAR          = .67866E-4
MEAN_MOTION_DOT = .624E-5
MEAN_MOTION_DDOT = 0

CCSDS_OMM_VERS = 2.0
CREATION_DATE  = 
ORIGINATOR     = 

OBJECT_NAME    = SL-16 R/B
OBJECT_ID      = 1985-097B
CENTER_NAME    = EARTH
REF_FRAME      = TEME
TIME_SYSTEM    = UTC
MEAN_ELEMENT_THEORY = SGP/SGP4

EPOCH          = 2026-02-04T22:48:04.116096
MEAN_MOTION    = 14.16595852
ECCENTRICITY   = .0009439
INCLINATION    = 71.0013
RA_OF_ASC_NODE = 209.4757
ARG_OF_PERICENTER = 298.0582
MEAN_ANOMALY   = 175.2540

EPHEMERIS_TYPE = 0
CLASSIFICATION_TYPE = U
NORAD_CAT_ID   = 16182
ELEMENT_SET_NO = 999
REV_AT_EPOCH   = 8259
BSTAR          = .75741E-4
MEAN_MOTION_DOT = .103E-5
MEAN_MOTION_DDOT = 0

CCSDS_OMM_VERS = 2.0
CREATION_DATE  = 
ORIGINATOR     = 

OBJECT_NAME    = SL-14 R/B
OBJECT_ID      = 1986-006B
CENTER_NAME    = EARTH
REF_FRAME      = TEME
TIME_SYSTEM    = UTC
MEAN_ELEMENT_THEORY = SGP/SGP4

EPOCH          = 2026-02-05T03:34:36.860736
MEAN_MOTION    = 14.86769285
ECCENTRICITY   = .0077254
INCLINATION    = 82.5273
RA_OF_ASC_NODE = 290.3646
ARG_OF_PERICENTER = 21.6760
MEAN_ANOMALY   = 338.7695

EPHEMERIS_TYPE = 0
CLASSIFICATION_TYPE = U
NORAD_CAT_ID   = 16496
ELEMENT_SET_NO = 999
REV_AT_EPOCH   = 14437
BSTAR          = .10096E-3
MEAN_MOTION_DOT = .976E-5
MEAN_MOTION_DDOT = 0

CCSDS_OMM_VERS = 2.0
CREATION_DATE  = 
ORIGINATOR     = 

OBJECT_NAME    = COSMOS 1743
OBJECT_ID      = 1986-034A
CENTER_NAME    = EARTH
REF_FRAME      = TEME
TIME_SYSTEM    = UTC
MEAN_ELEMENT_THEORY = SGP/SGP4

EPOCH          = 2026-02-04T22:28:08.753952
MEAN_MOTION    = 15.56170050
ECCENTRICITY   = .0005234
INCLINATION    = 82.5331
RA_OF_ASC_NODE = 108.1399
ARG_OF_PERICENTER = 62.1339
MEAN_ANOMALY   = 298.0445

EPHEMERIS_TYPE = 0
CLASSIFICATION_TYPE = U
NORAD_CAT_ID   = 16719
ELEMENT_SET_NO = 999
REV_AT_EPOCH   = 17515
BSTAR          = .62092E-3
MEAN_MOTION_DOT = .4366E-3
MEAN_MOTION_DDOT = 0

